[{"OBJECT_NAME":"STARLINK-32845","OBJECT_ID":"2025-018K","EPOCH":"2026-03-09T21:35:15.269856","MEAN_MOTION":15.30210645,"ECCENTRICITY":0.00017732,"INCLINATION":53.1586,"RA_OF_ASC_NODE":308.4026,"ARG_OF_PERICENTER":148.7409,"MEAN_ANOMALY":211.3697,"EPHEMERIS_TYPE":0,"CLASSIFICATION_TYPE":"U","NORAD_CAT_ID":62815,"ELEMENT_SET_NO":999,"REV_AT_EPOCH":6320,"BSTAR":0.00074431831,"MEAN_MOTION_DOT":0.00021757,"MEAN_MOTION_DDOT":0},{"OBJECT_NAME":"COSMOS 1975","OBJECT_ID":"1988-093A","EPOCH":"2026-03-09T14:15:08.474112","MEAN_MOTION":15.28069249,"ECCENTRICITY":0.0012117,"INCLINATION":82.5181,"RA_OF_ASC_NODE":117.7814,"ARG_OF_PERICENTER":163.8427,"MEAN_ANOMALY":196.3201,"EPHEMERIS_TYPE":0,"CLASSIFICATION_TYPE":"U","NORAD_CAT_ID":19573,"ELEMENT_SET_NO":999,"REV_AT_EPOCH":1939,"BSTAR":0.0002787,"MEAN_MOTION_DOT":7.676e-5,"MEAN_MOTION_DDOT":0}]
